OBJECT_NAME,OBJECT_ID,EPOCH,MEAN_MOTION,ECCENTRICITY,INCLINATION,RA_OF_ASC_NODE,ARG_OF_PERICENTER,MEAN_ANOMALY,EPHEMERIS_TYPE,CLASSIFICATION_TYPE,NORAD_CAT_ID,ELEMENT_SET_NO,REV_AT_EPOCH,BSTAR,MEAN_MOTION_DOT,MEAN_MOTION_DDOT
ASTRA 2E,2013-056A,2026-06-27T21:11:25.406880,1.00271441,.0002536,0.0608,332.2431,132.5169,157.5602,0,U,39285,999,4652,0,.162E-5,0
FM-6,2013-058A,2026-06-27T22:13:11.970336,1.00271034,.00016711,0.0180,48.4850,131.3868,313.1504,0,U,39360,999,4618,0,-.4E-7,0
RADUGA-1M 3,2013-062A,2026-06-27T19:31:02.701344,1.00271744,.00022298,5.9847,72.2190,289.6763,241.7603,0,U,39375,999,4621,0,.159E-5,0
SES-8,2013-071A,2026-06-27T23:11:18.330432,1.00272021,.00030976,0.0295,284.5617,170.9848,263.3525,0,U,39460,999,4453,0,-.258E-5,0
INMARSAT 5-F1,2013-073A,2026-06-27T16:24:21.483936,1.00269294,.00004195,0.0189,18.4619,357.3157,208.7300,0,U,39476,999,4568,0,.4E-6,0
TKSAT-1 (TUPAC KATARI),2013-075A,2026-06-27T22:21:26.179200,1.00272159,.0002859,0.0452,160.2277,288.8043,75.1745,0,U,39481,999,4571,0,-.183E-5,0
EXPRESS-AM5,2013-077A,2026-06-27T23:43:38.777664,1.00272649,.00004819,0.0159,297.1082,115.8377,359.0878,0,U,39487,999,4646,0,-.268E-5,0
GSAT-14,2014-001A,2026-06-27T22:43:05.642112,1.00272311,.00006601,0.0607,93.3573,130.9537,106.4979,0,U,39498,999,4548,0,-.65E-6,0
THAICOM 6,2014-002A,2026-06-27T22:47:51.956160,1.00271451,.00047186,0.0539,117.8330,355.2352,223.4770,0,U,39500,999,4556,0,-.11E-5,0
TDRS 12,2014-004A,2026-06-27T22:19:45.440256,1.00279611,.00032147,3.9875,19.2713,204.5000,346.0786,0,U,39504,999,4438,0,-.261E-5,0
ABS-2,2014-006A,2026-06-27T22:43:05.679264,1.00272134,.00040107,0.0161,30.5024,51.0578,250.1757,0,U,39508,999,4538,0,-.74E-6,0
ATHENA-FIDUS,2014-006B,2026-06-27T21:58:43.417056,1.00270534,.00016685,0.0158,81.4638,20.3195,181.7150,0,U,39509,999,4519,0,.166E-5,0
TURKSAT 4A,2014-007A,2026-06-27T22:03:28.774656,1.00272990,.00005037,0.0507,297.5744,353.4589,357.8474,0,U,39522,999,4507,0,.158E-5,0
EXPRESS-AT1,2014-010A,2026-06-27T23:36:42.668352,1.00306904,.00044186,0.2857,85.6278,43.2306,205.0339,0,U,39612,999,4492,0,.24E-6,0
EXPRESS-AT2,2014-010B,2026-06-27T22:20:55.253184,1.00270705,.00003062,0.0245,7.8690,334.7061,324.6874,0,U,39613,999,4460,0,0,0
AMAZONAS 4A,2014-011A,2026-06-27T22:25:10.820064,1.00271017,.00044146,0.0621,164.5506,312.3035,61.4790,0,U,39616,999,4482,0,-.241E-5,0
ASTRA 5B,2014-011B,2026-06-27T21:10:18.014016,1.00273043,.00022133,0.0515,327.4090,114.1978,175.4265,0,U,39617,999,4477,0,.149E-5,0
IRNSS-1B,2014-017A,2026-06-27T18:29:58.956000,1.00270216,.00224041,28.9051,240.2208,189.0275,179.2252,0,U,39635,999,4490,0,.148E-5,0
LUCH-5V,2014-023A,2026-06-27T23:09:11.520288,1.00271643,.00025239,5.1594,69.6415,50.8595,237.6236,0,U,39727,999,4446,0,-.262E-5,0
KAZSAT-3,2014-023B,2026-06-27T18:36:58.470336,1.00273320,.0000295,0.0097,346.2684,114.5329,152.8278,0,U,39728,999,4256,0,.72E-6,0
EUTELSAT 3B,2014-030A,2026-06-27T22:15:38.750112,1.00271025,.00042825,0.0598,355.9834,98.9298,158.1175,0,U,39773,999,4417,0,.31E-6,0
ASIASAT 8 (AMOS-7),2014-046A,2026-06-27T23:21:09.011808,1.00264948,.0001943,0.0458,272.5592,188.3210,270.7644,0,U,40107,999,10225,0,-.32E-5,0
ASIASAT 6,2014-052A,2026-06-27T21:37:53.684256,1.00273791,.00008931,0.0416,269.1839,192.6311,258.5703,0,U,40141,999,4318,0,-.35E-5,0
OPTUS 10,2014-054A,2026-06-27T14:28:38.885376,1.00274442,.00023913,0.0523,292.0927,163.7273,193.0678,0,U,40146,999,4313,0,-.135E-5,0
MEASAT-3B,2014-054B,2026-06-27T23:03:42.897888,1.00269868,.00028995,0.0465,50.6625,19.8931,282.9340,0,U,40147,999,4301,0,-.23E-5,0
HIMAWARI-8,2014-060A,2026-06-27T21:43:45.621696,1.00273864,.00011152,0.0143,336.6087,116.7412,289.2575,0,U,40267,999,4286,0,-.263E-5,0
IRNSS-1C,2014-061A,2026-06-27T19:06:04.205664,1.00275061,.00221191,6.5438,88.7299,4.8698,191.7311,0,U,40269,999,4279,0,-.156E-5,0
INTELSAT 30 (IS-30),2014-062A,2026-06-27T15:28:26.774976,1.00270924,.00016892,0.0227,47.3154,344.8347,20.6625,0,U,40271,999,689,0,-.139E-5,0
ARSAT 1,2014-062B,2026-06-27T22:25:48.259776,1.00271983,.00021397,0.0160,334.1989,117.2465,89.2435,0,U,40272,999,4273,0,-.248E-5,0
EUTELSAT 53A,2014-064A,2026-06-27T23:01:26.405760,1.00270944,.00011615,0.0163,326.1527,214.5359,133.7274,0,U,40277,999,4167,0,.11E-5,0
GSAT-16,2014-078A,2026-06-27T22:19:19.881408,1.00274303,.00080833,0.0561,266.8579,177.9408,221.1433,0,U,40332,999,4221,0,.96E-6,0
DIRECTV 14,2014-078B,2026-06-27T14:10:56.576640,1.00270992,.00002601,0.0111,24.5918,19.7028,344.9022,0,U,40333,999,4214,0,-.114E-5,0
