ASTRA 2E                
1 39285U 13056A   26178.88293295  .00000162  00000+0  00000+0 0  9999
2 39285   0.0608 332.2431 0002536 132.5169 157.5602  1.00271441 46527
FM-6                    
1 39360U 13058A   26178.92583299 -.00000004  00000+0  00000+0 0  9992
2 39360   0.0180  48.4850 0001671 131.3868 313.1504  1.00271034 46180
RADUGA-1M 3             
1 39375U 13062A   26178.81322571  .00000159  00000+0  00000+0 0  9995
2 39375   5.9847  72.2190 0002229 289.6763 241.7603  1.00271744 46211
SES-8                   
1 39460U 13071A   26178.96618438 -.00000258  00000+0  00000+0 0  9997
2 39460   0.0295 284.5617 0003097 170.9848 263.3525  1.00272021 44536
INMARSAT 5-F1           
1 39476U 13073A   26178.68358199  .00000040  00000+0  00000+0 0  9998
2 39476   0.0189  18.4619 0000419 357.3157 208.7300  1.00269294 45689
TKSAT-1 (TUPAC KATARI)  
1 39481U 13075A   26178.93155300 -.00000183  00000+0  00000+0 0  9992
2 39481   0.0452 160.2277 0002859 288.8043  75.1745  1.00272159 45713
EXPRESS-AM5             
1 39487U 13077A   26178.98864326 -.00000268  00000+0  00000+0 0  9994
2 39487   0.0159 297.1082 0000481 115.8377 359.0878  1.00272649 46463
GSAT-14                 
1 39498U 14001A   26178.94659308 -.00000065  00000+0  00000+0 0  9997
2 39498   0.0607  93.3573 0000660 130.9537 106.4979  1.00272311 45482
THAICOM 6               
1 39500U 14002A   26178.94990690 -.00000110  00000+0  00000+0 0  9995
2 39500   0.0539 117.8330 0004718 355.2352 223.4770  1.00271451 45560
TDRS 12                 
1 39504U 14004A   26178.93038704 -.00000261  00000+0  00000+0 0  9996
2 39504   3.9875  19.2713 0003214 204.5000 346.0786  1.00279611 44389
ABS-2                   
1 39508U 14006A   26178.94659351 -.00000074  00000+0  00000+0 0  9992
2 39508   0.0161  30.5024 0004010  51.0578 250.1757  1.00272134 45387
ATHENA-FIDUS            
1 39509U 14006B   26178.91578029  .00000166  00000+0  00000+0 0  9993
2 39509   0.0158  81.4638 0001668  20.3195 181.7150  1.00270534 45197
TURKSAT 4A              
1 39522U 14007A   26178.91908304  .00000158  00000+0  00000+0 0  9993
2 39522   0.0507 297.5744 0000503 353.4589 357.8474  1.00272990 45072
EXPRESS-AT1             
1 39612U 14010A   26178.98382718  .00000024  00000+0  00000+0 0  9991
2 39612   0.2857  85.6278 0004418  43.2306 205.0339  1.00306904 44920
EXPRESS-AT2             
1 39613U 14010B   26178.93119506  .00000000  00000+0  00000+0 0  9994
2 39613   0.0245   7.8690 0000306 334.7061 324.6874  1.00270705 44608
AMAZONAS 4A             
1 39616U 14011A   26178.93415301 -.00000241  00000+0  00000+0 0  9998
2 39616   0.0621 164.5506 0004414 312.3035  61.4790  1.00271017 44827
ASTRA 5B                
1 39617U 14011B   26178.88215294  .00000149  00000+0  00000+0 0  9998
2 39617   0.0515 327.4090 0002213 114.1978 175.4265  1.00273043 44775
IRNSS-1B                
1 39635U 14017A   26178.77082125  .00000148  00000+0  00000+0 0  9996
2 39635  28.9051 240.2208 0022404 189.0275 179.2252  1.00270216 44909
LUCH-5V                 
1 39727U 14023A   26178.96471667 -.00000262  00000+0  00000+0 0  9997
2 39727   5.1594  69.6415 0002523  50.8595 237.6236  1.00271643 44460
KAZSAT-3                
1 39728U 14023B   26178.77567674  .00000072  00000+0  00000+0 0  9999
2 39728   0.0097 346.2684 0000295 114.5329 152.8278  1.00273320 42569
EUTELSAT 3B             
1 39773U 14030A   26178.92753183  .00000031  00000+0  00000+0 0  9991
2 39773   0.0598 355.9834 0004282  98.9298 158.1175  1.00271025 44173
ASIASAT 8 (AMOS-7)      
1 40107U 14046A   26178.97302097 -.00000320  00000+0  00000+0 0  9992
2 40107   0.0458 272.5592 0001943 188.3210 270.7644  1.00264948102257
ASIASAT 6               
1 40141U 14052A   26178.90131579 -.00000350  00000+0  00000+0 0  9998
2 40141   0.0416 269.1839 0000893 192.6311 258.5703  1.00273791 43180
OPTUS 10                
1 40146U 14054A   26178.60322784 -.00000135  00000+0  00000+0 0  9993
2 40146   0.0523 292.0927 0002391 163.7273 193.0678  1.00274442 43131
MEASAT-3B               
1 40147U 14054B   26178.96091317 -.00000230  00000+0  00000+0 0  9994
2 40147   0.0465  50.6625 0002899  19.8931 282.9340  1.00269868 43012
HIMAWARI-8              
1 40267U 14060A   26178.90538914 -.00000263  00000+0  00000+0 0  9993
2 40267   0.0143 336.6087 0001115 116.7412 289.2575  1.00273864 42861
IRNSS-1C                
1 40269U 14061A   26178.79588201 -.00000156  00000+0  00000+0 0  9998
2 40269   6.5438  88.7299 0022119   4.8698 191.7311  1.00275061 42799
INTELSAT 30 (IS-30)     
1 40271U 14062A   26178.64475434 -.00000139  00000+0  00000+0 0  9990
2 40271   0.0227  47.3154 0001689 344.8347  20.6625  1.00270924  6897
ARSAT 1                 
1 40272U 14062B   26178.93458634 -.00000248  00000+0  00000+0 0  9997
2 40272   0.0160 334.1989 0002139 117.2465  89.2435  1.00271983 42730
EUTELSAT 53A            
1 40277U 14064A   26178.95933340  .00000110  00000+0  00000+0 0  9995
2 40277   0.0163 326.1527 0001161 214.5359 133.7274  1.00270944 41678
GSAT-16                 
1 40332U 14078A   26178.93009122  .00000096  00000+0  00000+0 0  9995
2 40332   0.0561 266.8579 0008083 177.9408 221.1433  1.00274303 42219
DIRECTV 14              
1 40333U 14078B   26178.59093260 -.00000114  00000+0  00000+0 0  9996
2 40333   0.0111  24.5918 0000260  19.7028 344.9022  1.00270992 42147
